SENTINEL-6              
1 46984U 20086A   24246.83912037 -.00000057  00000+0  15608-4 0  9994
2 46984  66.0419  49.9851 0007767 269.3403  90.6723 12.80931262176778
